{"type": "FeatureCollection", "features": [{"type": "Feature", "properties": {"norad_id": 28890, "name": "BEIJING 1", "group": "dmc", "lat": -61.73506382839108, "lon": 124.87904778393998, "alt_km": 697.7263565742423, "timestamp": "2025-12-07T16:44:03.577602+00:00", "meta": {"OBJECT_NAME": "BEIJING 1", "OBJECT_ID": "2005-043A", "EPOCH": "2025-12-06T22:58:14.110464", "MEAN_MOTION": 14.63357586, "ECCENTRICITY": 0.00150586, "INCLINATION": 98.2657, "RA_OF_ASC_NODE": 108.4507, "ARG_OF_PERICENTER": 158.8815, "MEAN_ANOMALY": 201.3011, "EPHEMERIS_TYPE": 0, "CLASSIFICATION_TYPE": "U", "NORAD_CAT_ID": 28890, "ELEMENT_SET_NO": 999, "REV_AT_EPOCH": 7253, "BSTAR": 0.00015749467, "MEAN_MOTION_DOT": 7.66e-06, "MEAN_MOTION_DDOT": 0}, "tle": {"line1": "1 28890U 05043A   25340.95710776  .00000766  00000+0  15749-3 0  9992", "line2": "2 28890  98.2657 108.4507 0015058 158.8815 201.3011 14.63357586 72539"}}, "geometry": {"type": "Point", "coordinates": [124.87904778393998, -61.73506382839108]}}, {"type": "Feature", "properties": {"norad_id": 33320, "name": "HUANJING 1A (HJ-1A)", "group": "dmc", "lat": -38.116097939341856, "lon": -23.73783642321458, "alt_km": 624.7793976504099, "timestamp": "2025-12-07T16:44:03.577627+00:00", "meta": {"OBJECT_NAME": "HUANJING 1A (HJ-1A)", "OBJECT_ID": "2008-041A", "EPOCH": "2025-12-06T23:05:56.966496", "MEAN_MOTION": 14.83366559, "ECCENTRICITY": 0.00204795, "INCLINATION": 97.6535, "RA_OF_ASC_NODE": 329.5022, "ARG_OF_PERICENTER": 52.5845, "MEAN_ANOMALY": 307.723, "EPHEMERIS_TYPE": 0, "CLASSIFICATION_TYPE": "U", "NORAD_CAT_ID": 33320, "ELEMENT_SET_NO": 999, "REV_AT_EPOCH": 92990, "BSTAR": 0.00033657048, "MEAN_MOTION_DOT": 2.718e-05, "MEAN_MOTION_DDOT": 0}, "tle": {"line1": "1 33320U 08041A   25340.96246489  .00002718  00000+0  33657-3 0  9990", "line2": "2 33320  97.6535 329.5022 0020479  52.5845 307.7230 14.83366559929903"}}, "geometry": {"type": "Point", "coordinates": [-23.73783642321458, -38.116097939341856]}}, {"type": "Feature", "properties": {"norad_id": 33321, "name": "HUANJING 1B (HJ-1B)", "group": "dmc", "lat": -13.699769639649404, "lon": 152.0413776140405, "alt_km": 630.5997154039796, "timestamp": "2025-12-07T16:44:03.577642+00:00", "meta": {"OBJECT_NAME": "HUANJING 1B (HJ-1B)", "OBJECT_ID": "2008-041B", "EPOCH": "2025-12-06T22:03:08.061984", "MEAN_MOTION": 14.82798426, "ECCENTRICITY": 0.00382436, "INCLINATION": 97.6394, "RA_OF_ASC_NODE": 333.1725, "ARG_OF_PERICENTER": 94.2353, "MEAN_ANOMALY": 266.3233, "EPHEMERIS_TYPE": 0, "CLASSIFICATION_TYPE": "U", "NORAD_CAT_ID": 33321, "ELEMENT_SET_NO": 999, "REV_AT_EPOCH": 92991, "BSTAR": 0.00028678065, "MEAN_MOTION_DOT": 2.297e-05, "MEAN_MOTION_DDOT": 0}, "tle": {"line1": "1 33321U 08041B   25340.91884331  .00002297  00000+0  28678-3 0  9999", "line2": "2 33321  97.6394 333.1725 0038243  94.2353 266.3233 14.82798426929918"}}, "geometry": {"type": "Point", "coordinates": [152.0413776140405, -13.699769639649404]}}, {"type": "Feature", "properties": {"norad_id": 33446, "name": "YAOGAN-4", "group": "dmc", "lat": 70.84519414549149, "lon": 115.46490551602176, "alt_km": 620.0360611779843, "timestamp": "2025-12-07T16:44:03.577654+00:00", "meta": {"OBJECT_NAME": "YAOGAN-4", "OBJECT_ID": "2008-061A", "EPOCH": "2025-12-06T19:11:44.118816", "MEAN_MOTION": 14.82653709, "ECCENTRICITY": 0.00141035, "INCLINATION": 97.9176, "RA_OF_ASC_NODE": 270.9574, "ARG_OF_PERICENTER": 343.3516, "MEAN_ANOMALY": 16.7232, "EPHEMERIS_TYPE": 0, "CLASSIFICATION_TYPE": "U", "NORAD_CAT_ID": 33446, "ELEMENT_SET_NO": 999, "REV_AT_EPOCH": 91715, "BSTAR": 0.00034781722, "MEAN_MOTION_DOT": 2.754e-05, "MEAN_MOTION_DDOT": 0}, "tle": {"line1": "1 33446U 08061A   25340.79981619  .00002754  00000+0  34782-3 0  9993", "line2": "2 33446  97.9176 270.9574 0014103 343.3516  16.7232 14.82653709917158"}}, "geometry": {"type": "Point", "coordinates": [115.46490551602176, 70.84519414549149]}}, {"type": "Feature", "properties": {"norad_id": 35681, "name": "DEIMOS-1", "group": "dmc", "lat": 16.943772317454084, "lon": 140.16842893234747, "alt_km": 645.3101591085497, "timestamp": "2025-12-07T16:44:03.577666+00:00", "meta": {"OBJECT_NAME": "DEIMOS-1", "OBJECT_ID": "2009-041A", "EPOCH": "2025-12-06T22:44:49.470720", "MEAN_MOTION": 14.74938766, "ECCENTRICITY": 0.0002688, "INCLINATION": 97.7153, "RA_OF_ASC_NODE": 141.8212, "ARG_OF_PERICENTER": 91.0249, "MEAN_ANOMALY": 269.1268, "EPHEMERIS_TYPE": 0, "CLASSIFICATION_TYPE": "U", "NORAD_CAT_ID": 35681, "ELEMENT_SET_NO": 999, "REV_AT_EPOCH": 87854, "BSTAR": 0.00019622315, "MEAN_MOTION_DOT": 1.271e-05, "MEAN_MOTION_DDOT": 0}, "tle": {"line1": "1 35681U 09041A   25340.94779480  .00001271  00000+0  19622-3 0  9992", "line2": "2 35681  97.7153 141.8212 0002688  91.0249 269.1268 14.74938766878546"}}, "geometry": {"type": "Point", "coordinates": [140.16842893234747, 16.943772317454084]}}, {"type": "Feature", "properties": {"norad_id": 35683, "name": "UK-DMC 2", "group": "dmc", "lat": 19.846142045266813, "lon": 113.88595169449802, "alt_km": 643.1783598588372, "timestamp": "2025-12-07T16:44:03.577677+00:00", "meta": {"OBJECT_NAME": "UK-DMC 2", "OBJECT_ID": "2009-041C", "EPOCH": "2025-12-06T22:44:30.895584", "MEAN_MOTION": 14.75601932, "ECCENTRICITY": 0.00013425, "INCLINATION": 97.8564, "RA_OF_ASC_NODE": 116.0143, "ARG_OF_PERICENTER": 102.1904, "MEAN_ANOMALY": 257.9456, "EPHEMERIS_TYPE": 0, "CLASSIFICATION_TYPE": "U", "NORAD_CAT_ID": 35683, "ELEMENT_SET_NO": 999, "REV_AT_EPOCH": 87821, "BSTAR": 0.00028013265, "MEAN_MOTION_DOT": 1.862e-05, "MEAN_MOTION_DDOT": 0}, "tle": {"line1": "1 35683U 09041C   25340.94757981  .00001862  00000+0  28013-3 0  9996", "line2": "2 35683  97.8564 116.0143 0001342 102.1904 257.9456 14.75601932878211"}}, "geometry": {"type": "Point", "coordinates": [113.88595169449802, 19.846142045266813]}}, {"type": "Feature", "properties": {"norad_id": 40715, "name": "DMC3-FM1", "group": "dmc", "lat": -69.73955302834699, "lon": 7.6593828819664544, "alt_km": 619.4532126312961, "timestamp": "2025-12-07T16:44:03.577688+00:00", "meta": {"OBJECT_NAME": "DMC3-FM1", "OBJECT_ID": "2015-032A", "EPOCH": "2025-12-06T21:49:22.950624", "MEAN_MOTION": 14.85424799, "ECCENTRICITY": 0.00050346, "INCLINATION": 97.6703, "RA_OF_ASC_NODE": 208.3141, "ARG_OF_PERICENTER": 342.4463, "MEAN_ANOMALY": 17.6578, "EPHEMERIS_TYPE": 0, "CLASSIFICATION_TYPE": "U", "NORAD_CAT_ID": 40715, "ELEMENT_SET_NO": 999, "REV_AT_EPOCH": 56136, "BSTAR": 0.00017487365, "MEAN_MOTION_DOT": 1.455e-05, "MEAN_MOTION_DDOT": 0}, "tle": {"line1": "1 40715U 15032A   25340.90929341  .00001455  00000+0  17487-3 0  9993", "line2": "2 40715  97.6703 208.3141 0005034 342.4463  17.6578 14.85424799561366"}}, "geometry": {"type": "Point", "coordinates": [7.6593828819664544, -69.73955302834699]}}, {"type": "Feature", "properties": {"norad_id": 40716, "name": "DMC3-FM2", "group": "dmc", "lat": 48.347653856522335, "lon": 39.23488876016066, "alt_km": 611.2491995059927, "timestamp": "2025-12-07T16:44:03.577698+00:00", "meta": {"OBJECT_NAME": "DMC3-FM2", "OBJECT_ID": "2015-032B", "EPOCH": "2025-12-06T19:07:46.987104", "MEAN_MOTION": 14.85426178, "ECCENTRICITY": 0.00056811, "INCLINATION": 97.6761, "RA_OF_ASC_NODE": 209.6456, "ARG_OF_PERICENTER": 347.244, "MEAN_ANOMALY": 12.863, "EPHEMERIS_TYPE": 0, "CLASSIFICATION_TYPE": "U", "NORAD_CAT_ID": 40716, "ELEMENT_SET_NO": 999, "REV_AT_EPOCH": 56134, "BSTAR": 0.00018427393, "MEAN_MOTION_DOT": 1.537e-05, "MEAN_MOTION_DDOT": 0}, "tle": {"line1": "1 40716U 15032B   25340.79707161  .00001537  00000+0  18427-3 0  9991", "line2": "2 40716  97.6761 209.6456 0005681 347.2440  12.8630 14.85426178561347"}}, "geometry": {"type": "Point", "coordinates": [39.23488876016066, 48.347653856522335]}}, {"type": "Feature", "properties": {"norad_id": 40717, "name": "DMC3-FM3", "group": "dmc", "lat": 15.350127674499655, "lon": -149.98016235792065, "alt_km": 610.032611728705, "timestamp": "2025-12-07T16:44:03.577709+00:00", "meta": {"OBJECT_NAME": "DMC3-FM3", "OBJECT_ID": "2015-032C", "EPOCH": "2025-12-06T21:15:52.030368", "MEAN_MOTION": 14.85417765, "ECCENTRICITY": 0.00050294, "INCLINATION": 97.6816, "RA_OF_ASC_NODE": 211.3605, "ARG_OF_PERICENTER": 349.0839, "MEAN_ANOMALY": 11.0266, "EPHEMERIS_TYPE": 0, "CLASSIFICATION_TYPE": "U", "NORAD_CAT_ID": 40717, "ELEMENT_SET_NO": 999, "REV_AT_EPOCH": 56136, "BSTAR": 0.00015328853, "MEAN_MOTION_DOT": 1.269e-05, "MEAN_MOTION_DDOT": 0}, "tle": {"line1": "1 40717U 15032C   25340.88601887  .00001269  00000+0  15329-3 0  9990", "line2": "2 40717  97.6816 211.3605 0005029 349.0839  11.0266 14.85417765561363"}}, "geometry": {"type": "Point", "coordinates": [-149.98016235792065, 15.350127674499655]}}]}